FENGYUN 1C DEB          
1 31634U 99025CAQ 24299.84294535  .00000760  00000+0  58781-3 0  9992
2 31634  99.4199 333.3503 0092158 194.5112 165.3399 13.94109539507695
FENGYUN 1C DEB          
1 31644U 99025CBA 24285.38417743  .00160041  00000+0  26468-1 0  9999
2 31644  98.7234 145.2209 0176323  67.2200 103.8101 14.59701611647900
FENGYUN 1C DEB          
1 31646U 99025CBC 24280.34097426  .00003771  00000+0  20404-2 0  9995
2 31646  98.7335 308.5841 0033583   9.7964 350.3857 14.12819135570821
FENGYUN 1C DEB          
1 31648U 99025CBE 24291.74735891  .00016507  00000+0  94706-2 0  9995
2 31648 102.7941 290.9759 0041554  87.7827 272.8085 14.09016675659536
FENGYUN 1C DEB          
1 31649U 99025CBF 24284.50322414  .00007907  00000+0  74361-2 0  9994
2 31649  98.1853  17.6583 0269919 278.9362  78.1325 13.66607304865104
FENGYUN 1C DEB          
1 31658U 99025CBQ 24301.64188552  .00016500  00000+0  10172-1 0  9990
2 31658  98.1637 190.6293 0230884  40.0607 321.7332 13.93148417876958
FENGYUN 1C DEB          
1 31659U 99025CBR 24286.97829371  .00054945  00000+0  39522-2 0  9996
2 31659  98.9915 191.9913 0101023  62.6959 298.4504 14.99940928923296
FENGYUN 1C DEB          
1 31660U 99025CBS 24292.29157653  .00006660  00000+0  27144-2 0  9995
2 31660  98.5063 299.7169 0104921 332.9271  26.6460 14.24770168904003
FENGYUN 1C DEB          
1 31663U 99025CBV 24301.37725624  .00006743  00000+0  76670-3 0  9998
2 31663  98.8813 164.5679 0201654  87.6630 274.7647 14.72981588933841
FENGYUN 1C DEB          
1 31664U 99025CBW 24302.75468598  .00002527  00000+0  13722-2 0  9990
2 31664  98.7316 299.8601 0125081 239.1892 119.6920 14.09315834902245
