[{"OBJECT_NAME":"FENGYUN 1C DEB","OBJECT_ID":"1999-025CAQ","EPOCH":"2024-10-25T20:13:50.478240","MEAN_MOTION":13.94109539,"ECCENTRICITY":0.0092158,"INCLINATION":99.4199,"RA_OF_ASC_NODE":333.3503,"ARG_OF_PERICENTER":194.5112,"MEAN_ANOMALY":165.3399,"EPHEMERIS_TYPE":0,"CLASSIFICATION_TYPE":"U","NORAD_CAT_ID":31634,"ELEMENT_SET_NO":999,"REV_AT_EPOCH":50769,"BSTAR":0.00058781,"MEAN_MOTION_DOT":7.6e-6,"MEAN_MOTION_DDOT":0},{"OBJECT_NAME":"FENGYUN 1C DEB","OBJECT_ID":"1999-025CBA","EPOCH":"2024-10-11T09:13:12.929952","MEAN_MOTION":14.59701611,"ECCENTRICITY":0.0176323,"INCLINATION":98.7234,"RA_OF_ASC_NODE":145.2209,"ARG_OF_PERICENTER":67.22,"MEAN_ANOMALY":103.8101,"EPHEMERIS_TYPE":0,"CLASSIFICATION_TYPE":"U","NORAD_CAT_ID":31644,"ELEMENT_SET_NO":999,"REV_AT_EPOCH":64790,"BSTAR":0.026468,"MEAN_MOTION_DOT":0.00160041,"MEAN_MOTION_DDOT":0},{"OBJECT_NAME":"FENGYUN 1C DEB","OBJECT_ID":"1999-025CBC","EPOCH":"2024-10-06T08:11:00.176064","MEAN_MOTION":14.12819135,"ECCENTRICITY":0.0033583,"INCLINATION":98.7335,"RA_OF_ASC_NODE":308.5841,"ARG_OF_PERICENTER":9.7964,"MEAN_ANOMALY":350.3857,"EPHEMERIS_TYPE":0,"CLASSIFICATION_TYPE":"U","NORAD_CAT_ID":31646,"ELEMENT_SET_NO":999,"REV_AT_EPOCH":57082,"BSTAR":0.0020404,"MEAN_MOTION_DOT":3.771e-5,"MEAN_MOTION_DDOT":0},{"OBJECT_NAME":"FENGYUN 1C DEB","OBJECT_ID":"1999-025CBE","EPOCH":"2024-10-17T17:56:11.809824","MEAN_MOTION":14.09016675,"ECCENTRICITY":0.0041554,"INCLINATION":102.7941,"RA_OF_ASC_NODE":290.9759,"ARG_OF_PERICENTER":87.7827,"MEAN_ANOMALY":272.8085,"EPHEMERIS_TYPE":0,"CLASSIFICATION_TYPE":"U","NORAD_CAT_ID":31648,"ELEMENT_SET_NO":999,"REV_AT_EPOCH":65953,"BSTAR":0.0094706,"MEAN_MOTION_DOT":0.00016507,"MEAN_MOTION_DDOT":0},{"OBJECT_NAME":"FENGYUN 1C DEB","OBJECT_ID":"1999-025CBF","EPOCH":"2024-10-10T12:04:38.565696","MEAN_MOTION":13.66607304,"ECCENTRICITY":0.0269919,"INCLINATION":98.1853,"RA_OF_ASC_NODE":17.6583,"ARG_OF_PERICENTER":278.9362,"MEAN_ANOMALY":78.1325,"EPHEMERIS_TYPE":0,"CLASSIFICATION_TYPE":"U","NORAD_CAT_ID":31649,"ELEMENT_SET_NO":999,"REV_AT_EPOCH":86510,"BSTAR":0.0074361,"MEAN_MOTION_DOT":7.907e-5,"MEAN_MOTION_DDOT":0},{"OBJECT_NAME":"FENGYUN 1C DEB","OBJECT_ID":"1999-025CBQ","EPOCH":"2024-10-27T15:24:18.908928","MEAN_MOTION":13.93148417,"ECCENTRICITY":0.0230884,"INCLINATION":98.1637,"RA_OF_ASC_NODE":190.6293,"ARG_OF_PERICENTER":40.0607,"MEAN_ANOMALY":321.7332,"EPHEMERIS_TYPE":0,"CLASSIFICATION_TYPE":"U","NORAD_CAT_ID":31658,"ELEMENT_SET_NO":999,"REV_AT_EPOCH":64078,"BSTAR":0.010172,"MEAN_MOTION_DOT":0.000165,"MEAN_MOTION_DDOT":0},{"OBJECT_NAME":"FENGYUN 1C DEB","OBJECT_ID":"1999-025CBR","EPOCH":"2024-10-12T23:28:44.576544","MEAN_MOTION":14.99940928,"ECCENTRICITY":0.0101023,"INCLINATION":98.9915,"RA_OF_ASC_NODE":191.9913,"ARG_OF_PERICENTER":62.6959,"MEAN_ANOMALY":298.4504,"EPHEMERIS_TYPE":0,"CLASSIFICATION_TYPE":"U","NORAD_CAT_ID":31659,"ELEMENT_SET_NO":999,"REV_AT_EPOCH":92329,"BSTAR":0.0039522,"MEAN_MOTION_DOT":0.00054945,"MEAN_MOTION_DDOT":0},{"OBJECT_NAME":"FENGYUN 1C DEB","OBJECT_ID":"1999-025CBS","EPOCH":"2024-10-18T06:59:52.212192","MEAN_MOTION":14.24770168,"ECCENTRICITY":0.0104921,"INCLINATION":98.5063,"RA_OF_ASC_NODE":299.7169,"ARG_OF_PERICENTER":332.9271,"MEAN_ANOMALY":26.646,"EPHEMERIS_TYPE":0,"CLASSIFICATION_TYPE":"U","NORAD_CAT_ID":31660,"ELEMENT_SET_NO":999,"REV_AT_EPOCH":90400,"BSTAR":0.0027144,"MEAN_MOTION_DOT":6.66e-5,"MEAN_MOTION_DDOT":0},{"OBJECT_NAME":"FENGYUN 1C DEB","OBJECT_ID":"1999-025CBV","EPOCH":"2024-10-27T09:03:14.939136","MEAN_MOTION":14.72981588,"ECCENTRICITY":0.0201654,"INCLINATION":98.8813,"RA_OF_ASC_NODE":164.5679,"ARG_OF_PERICENTER":87.663,"MEAN_ANOMALY":274.7647,"EPHEMERIS_TYPE":0,"CLASSIFICATION_TYPE":"U","NORAD_CAT_ID":31663,"ELEMENT_SET_NO":999,"REV_AT_EPOCH":93216,"BSTAR":0.0007667,"MEAN_MOTION_DOT":6.743e-5,"MEAN_MOTION_DDOT":0},{"OBJECT_NAME":"FENGYUN 1C DEB","OBJECT_ID":"1999-025CBW","EPOCH":"2024-10-28T18:06:44.868672","MEAN_MOTION":14.09315834,"ECCENTRICITY":0.0125081,"INCLINATION":98.7316,"RA_OF_ASC_NODE":299.8601,"ARG_OF_PERICENTER":239.1892,"MEAN_ANOMALY":119.692,"EPHEMERIS_TYPE":0,"CLASSIFICATION_TYPE":"U","NORAD_CAT_ID":31664,"ELEMENT_SET_NO":999,"REV_AT_EPOCH":90224,"BSTAR":0.0013722,"MEAN_MOTION_DOT":2.527e-5,"MEAN_MOTION_DDOT":0}]